[{"OBJECT_NAME":"STARLINK-2041","OBJECT_ID":"2021-012AP","EPOCH":"2026-01-09T04:32:48.402240","MEAN_MOTION":15.06423421,"ECCENTRICITY":0.00011977,"INCLINATION":53.0553,"RA_OF_ASC_NODE":338.7232,"ARG_OF_PERICENTER":110.1931,"MEAN_ANOMALY":249.9187,"EPHEMERIS_TYPE":0,"CLASSIFICATION_TYPE":"U","NORAD_CAT_ID":47657,"ELEMENT_SET_NO":999,"REV_AT_EPOCH":27101,"BSTAR":0.0004475273,"MEAN_MOTION_DOT":6.395e-5,"MEAN_MOTION_DDOT":0},{"OBJECT_NAME":"STARLINK-2052","OBJECT_ID":"2021-012AU","EPOCH":"2026-01-09T20:00:00.999360","MEAN_MOTION":15.76338241,"ECCENTRICITY":0.0011145,"INCLINATION":53.0398,"RA_OF_ASC_NODE":266.3554,"ARG_OF_PERICENTER":123.4169,"MEAN_ANOMALY":45.0478,"EPHEMERIS_TYPE":0,"CLASSIFICATION_TYPE":"U","NORAD_CAT_ID":47662,"ELEMENT_SET_NO":999,"REV_AT_EPOCH":598,"BSTAR":0.0014675,"MEAN_MOTION_DOT":0.00243105,"MEAN_MOTION_DDOT":0},{"OBJECT_NAME":"STARLINK-2058","OBJECT_ID":"2021-012AZ","EPOCH":"2026-01-09T20:00:00.999360","MEAN_MOTION":15.57695499,"ECCENTRICITY":0.0003813,"INCLINATION":53.0519,"RA_OF_ASC_NODE":314.5574,"ARG_OF_PERICENTER":109.0449,"MEAN_ANOMALY":351.5633,"EPHEMERIS_TYPE":0,"CLASSIFICATION_TYPE":"U","NORAD_CAT_ID":47667,"ELEMENT_SET_NO":999,"REV_AT_EPOCH":589,"BSTAR":0.0021105,"MEAN_MOTION_DOT":0.00162,"MEAN_MOTION_DDOT":0},{"OBJECT_NAME":"STARLINK-2065","OBJECT_ID":"2021-012BE","EPOCH":"2026-01-09T20:00:00.999360","MEAN_MOTION":15.50846967,"ECCENTRICITY":0.000653,"INCLINATION":53.1588,"RA_OF_ASC_NODE":294.9928,"ARG_OF_PERICENTER":112.3367,"MEAN_ANOMALY":311.8931,"EPHEMERIS_TYPE":0,"CLASSIFICATION_TYPE":"U","NORAD_CAT_ID":47672,"ELEMENT_SET_NO":999,"REV_AT_EPOCH":589,"BSTAR":0.0021037,"MEAN_MOTION_DOT":0.00125161,"MEAN_MOTION_DDOT":0},{"OBJECT_NAME":"STARLINK-2083","OBJECT_ID":"2021-012BJ","EPOCH":"2026-01-09T20:00:00.999360","MEAN_MOTION":15.37722718,"ECCENTRICITY":0.0001378,"INCLINATION":53.0554,"RA_OF_ASC_NODE":203.3226,"ARG_OF_PERICENTER":83.7148,"MEAN_ANOMALY":195.8975,"EPHEMERIS_TYPE":0,"CLASSIFICATION_TYPE":"U","NORAD_CAT_ID":47676,"ELEMENT_SET_NO":999,"REV_AT_EPOCH":577,"BSTAR":0.00055683,"MEAN_MOTION_DOT":0.00020601,"MEAN_MOTION_DDOT":0},{"OBJECT_NAME":"STARLINK-2095","OBJECT_ID":"2021-012BM","EPOCH":"2026-01-09T10:43:01.977888","MEAN_MOTION":15.5528639,"ECCENTRICITY":0.00069608,"INCLINATION":53.0338,"RA_OF_ASC_NODE":277.5049,"ARG_OF_PERICENTER":140.2272,"MEAN_ANOMALY":219.9249,"EPHEMERIS_TYPE":0,"CLASSIFICATION_TYPE":"U","NORAD_CAT_ID":47679,"ELEMENT_SET_NO":999,"REV_AT_EPOCH":27191,"BSTAR":0.0013610455,"MEAN_MOTION_DOT":0.00094602,"MEAN_MOTION_DDOT":0},{"OBJECT_NAME":"STARLINK-2068","OBJECT_ID":"2021-017A","EPOCH":"2026-01-09T13:14:59.843328","MEAN_MOTION":15.06418842,"ECCENTRICITY":0.00012927,"INCLINATION":53.0553,"RA_OF_ASC_NODE":102.3413,"ARG_OF_PERICENTER":94.9965,"MEAN_ANOMALY":265.1171,"EPHEMERIS_TYPE":0,"CLASSIFICATION_TYPE":"U","NORAD_CAT_ID":47722,"ELEMENT_SET_NO":999,"REV_AT_EPOCH":26907,"BSTAR":0.00014055456,"MEAN_MOTION_DOT":1.814e-5,"MEAN_MOTION_DDOT":0},{"OBJECT_NAME":"STARLINK-2107","OBJECT_ID":"2021-017B","EPOCH":"2026-01-09T08:39:38.033568","MEAN_MOTION":15.06414045,"ECCENTRICITY":0.00014872,"INCLINATION":53.0547,"RA_OF_ASC_NODE":37.9565,"ARG_OF_PERICENTER":96.2448,"MEAN_ANOMALY":263.8711,"EPHEMERIS_TYPE":0,"CLASSIFICATION_TYPE":"U","NORAD_CAT_ID":47723,"ELEMENT_SET_NO":999,"REV_AT_EPOCH":26992,"BSTAR":0.00013982355,"MEAN_MOTION_DOT":1.803e-5,"MEAN_MOTION_DDOT":0},{"OBJECT_NAME":"STARLINK-2116","OBJECT_ID":"2021-017C","EPOCH":"2026-01-09T20:00:00.999360","MEAN_MOTION":15.57132779,"ECCENTRICITY":0.0012602,"INCLINATION":53.0496,"RA_OF_ASC_NODE":14.9991,"ARG_OF_PERICENTER":32.5686,"MEAN_ANOMALY":342.1751,"EPHEMERIS_TYPE":0,"CLASSIFICATION_TYPE":"U","NORAD_CAT_ID":47724,"ELEMENT_SET_NO":999,"REV_AT_EPOCH":589,"BSTAR":0.0027048,"MEAN_MOTION_DOT":0.00205116,"MEAN_MOTION_DDOT":0},{"OBJECT_NAME":"STARLINK-2131","OBJECT_ID":"2021-017G","EPOCH":"2026-01-09T14:10:02.451360","MEAN_MOTION":15.06421872,"ECCENTRICITY":0.00013331,"INCLINATION":53.0548,"RA_OF_ASC_NODE":106.9257,"ARG_OF_PERICENTER":83.8274,"MEAN_ANOMALY":276.2867,"EPHEMERIS_TYPE":0,"CLASSIFICATION_TYPE":"U","NORAD_CAT_ID":47728,"ELEMENT_SET_NO":999,"REV_AT_EPOCH":26901,"BSTAR":0.00066213255,"MEAN_MOTION_DOT":9.6e-5,"MEAN_MOTION_DDOT":0},{"OBJECT_NAME":"STARLINK-2140","OBJECT_ID":"2021-017J","EPOCH":"2026-01-09T14:42:32.296320","MEAN_MOTION":15.06415976,"ECCENTRICITY":0.00012892,"INCLINATION":53.0561,"RA_OF_ASC_NODE":121.8368,"ARG_OF_PERICENTER":89.5916,"MEAN_ANOMALY":270.5221,"EPHEMERIS_TYPE":0,"CLASSIFICATION_TYPE":"U","NORAD_CAT_ID":47730,"ELEMENT_SET_NO":999,"REV_AT_EPOCH":26875,"BSTAR":0.00012707365,"MEAN_MOTION_DOT":1.613e-5,"MEAN_MOTION_DDOT":0},{"OBJECT_NAME":"STARLINK-2141","OBJECT_ID":"2021-017K","EPOCH":"2026-01-09T13:15:38.221344","MEAN_MOTION":15.06406161,"ECCENTRICITY":0.00012946,"INCLINATION":53.0567,"RA_OF_ASC_NODE":117.0979,"ARG_OF_PERICENTER":85.1564,"MEAN_ANOMALY":274.9573,"EPHEMERIS_TYPE":0,"CLASSIFICATION_TYPE":"U","NORAD_CAT_ID":47731,"ELEMENT_SET_NO":999,"REV_AT_EPOCH":26882,"BSTAR":5.059746e-5,"MEAN_MOTION_DOT":4.72e-6,"MEAN_MOTION_DDOT":0},{"OBJECT_NAME":"STARLINK-2143","OBJECT_ID":"2021-017M","EPOCH":"2026-01-09T14:33:54.739584","MEAN_MOTION":15.06412048,"ECCENTRICITY":0.0001176,"INCLINATION":53.0568,"RA_OF_ASC_NODE":126.8511,"ARG_OF_PERICENTER":88.1875,"MEAN_ANOMALY":271.9249,"EPHEMERIS_TYPE":0,"CLASSIFICATION_TYPE":"U","NORAD_CAT_ID":47733,"ELEMENT_SET_NO":999,"REV_AT_EPOCH":26873,"BSTAR":1.211869e-5,"MEAN_MOTION_DOT":-1.01e-6,"MEAN_MOTION_DDOT":0},{"OBJECT_NAME":"STARLINK-2144","OBJECT_ID":"2021-017N","EPOCH":"2026-01-09T13:26:14.602272","MEAN_MOTION":15.06413906,"ECCENTRICITY":0.00015033,"INCLINATION":53.0574,"RA_OF_ASC_NODE":117.0653,"ARG_OF_PERICENTER":100.2644,"MEAN_ANOMALY":259.8515,"EPHEMERIS_TYPE":0,"CLASSIFICATION_TYPE":"U","NORAD_CAT_ID":47734,"ELEMENT_SET_NO":999,"REV_AT_EPOCH":26883,"BSTAR":0.00012605765,"MEAN_MOTION_DOT":1.597e-5,"MEAN_MOTION_DDOT":0},{"OBJECT_NAME":"STARLINK-2147","OBJECT_ID":"2021-017Q","EPOCH":"2026-01-09T12:39:48.126240","MEAN_MOTION":15.06417037,"ECCENTRICITY":0.00013411,"INCLINATION":53.0558,"RA_OF_ASC_NODE":107.2102,"ARG_OF_PERICENTER":96.4742,"MEAN_ANOMALY":263.64,"EPHEMERIS_TYPE":0,"CLASSIFICATION_TYPE":"U","NORAD_CAT_ID":47736,"ELEMENT_SET_NO":999,"REV_AT_EPOCH":26900,"BSTAR":0.00034643477,"MEAN_MOTION_DOT":4.885e-5,"MEAN_MOTION_DDOT":0},{"OBJECT_NAME":"STARLINK-2150","OBJECT_ID":"2021-017T","EPOCH":"2026-01-09T15:44:54.701088","MEAN_MOTION":15.06408569,"ECCENTRICITY":0.00011584,"INCLINATION":53.0558,"RA_OF_ASC_NODE":131.6321,"ARG_OF_PERICENTER":88.0843,"MEAN_ANOMALY":272.0278,"EPHEMERIS_TYPE":0,"CLASSIFICATION_TYPE":"U","NORAD_CAT_ID":47739,"ELEMENT_SET_NO":999,"REV_AT_EPOCH":26867,"BSTAR":0.0001372797,"MEAN_MOTION_DOT":1.764e-5,"MEAN_MOTION_DDOT":0}]
