STARLINK-2041           
1 47657U 21012AP  26009.18944910  .00006395  00000+0  44753-3 0  9996
2 47657  53.0553 338.7232 0001197 110.1931 249.9187 15.06423421271013
STARLINK-2052           
1 47662U 21012AU  26009.83334490  .00243105  00000+0  14675-2 0  9991
2 47662  53.0398 266.3554 0011145 123.4169  45.0478 15.76338241  5984
STARLINK-2058           
1 47667U 21012AZ  26009.83334490  .00162000  00000+0  21105-2 0  9996
2 47667  53.0519 314.5574 0003813 109.0449 351.5633 15.57695499  5894
STARLINK-2065           
1 47672U 21012BE  26009.83334490  .00125161  00000+0  21037-2 0  9993
2 47672  53.1588 294.9928 0006530 112.3367 311.8931 15.50846967  5897
STARLINK-2083           
1 47676U 21012BJ  26009.83334490  .00020601  00000+0  55683-3 0  9995
2 47676  53.0554 203.3226 0001378  83.7148 195.8975 15.37722718  5778
STARLINK-2095           
1 47679U 21012BM  26009.44655067  .00094602  00000+0  13610-2 0  9996
2 47679  53.0338 277.5049 0006960 140.2272 219.9249 15.55286390271910
STARLINK-2068           
1 47722U 21017A   26009.55208152  .00001814  00000+0  14055-3 0  9999
2 47722  53.0553 102.3413 0001292  94.9965 265.1171 15.06418842269071
STARLINK-2107           
1 47723U 21017B   26009.36085687  .00001803  00000+0  13982-3 0  9991
2 47723  53.0547  37.9565 0001487  96.2448 263.8711 15.06414045269923
STARLINK-2116           
1 47724U 21017C   26009.83334490  .00205116  00000+0  27048-2 0  9993
2 47724  53.0496  14.9991 0012602  32.5686 342.1751 15.57132779  5899
STARLINK-2131           
1 47728U 21017G   26009.59030615  .00009600  00000+0  66213-3 0  9990
2 47728  53.0548 106.9257 0001333  83.8274 276.2867 15.06421872269019
STARLINK-2140           
1 47730U 21017J   26009.61287380  .00001613  00000+0  12707-3 0  9994
2 47730  53.0561 121.8368 0001289  89.5916 270.5221 15.06415976268751
STARLINK-2141           
1 47731U 21017K   26009.55252571  .00000472  00000+0  50597-4 0  9994
2 47731  53.0567 117.0979 0001294  85.1564 274.9573 15.06406161268822
STARLINK-2143           
1 47733U 21017M   26009.60688356 -.00000101  00000+0  12119-4 0  9994
2 47733  53.0568 126.8511 0001176  88.1875 271.9249 15.06412048268730
STARLINK-2144           
1 47734U 21017N   26009.55989123  .00001597  00000+0  12606-3 0  9994
2 47734  53.0574 117.0653 0001503 100.2644 259.8515 15.06413906268837
STARLINK-2147           
1 47736U 21017Q   26009.52764035  .00004885  00000+0  34643-3 0  9994
2 47736  53.0558 107.2102 0001341  96.4742 263.6400 15.06417037269001
STARLINK-2150           
1 47739U 21017T   26009.65618867  .00001764  00000+0  13728-3 0  9996
2 47739  53.0558 131.6321 0001158  88.0843 272.0278 15.06408569268672
